BADR-6                  
1 33154U 08034B   24282.54940266  .00000155  00000+0  00000+0 0  9994
2 33154   1.2473  85.9542 0003552  83.9266  71.8307  1.00271536 59574
ECHOSTAR 11             
1 33207U 08035A   24282.37925990 -.00000047  00000+0  00000+0 0  9993
2 33207   0.0460  81.9053 0002619 105.0657 217.0862  1.00272059 45028
SUPERBIRD-C2            
1 33274U 08038A   24282.57277347 -.00000241  00000+0  00000+0 0  9994
2 33274   0.7590  89.1358 0001394 130.4373 148.2849  1.00270470 99548
AMC-21                  
1 33275U 08038B   24282.53944015  .00000046  00000+0  00000+0 0  9996
2 33275   1.3455  88.2158 0002851 108.1396 250.6236  1.00271176 59289
INMARSAT 4-F3           
1 33278U 08039A   24282.38169255 -.00000129  00000+0  00000+0 0  9991
2 33278   3.7916  28.2856 0002969 181.1292 207.5239  1.00271430 40361
NIMIQ 4                 
1 33373U 08044A   24282.52785632 -.00000211  00000+0  00000+0 0  9994
2 33373   0.0167 230.7188 0001552 324.1888 290.7840  1.00272885 58805
GALAXY 19 (G-19)        
1 33376U 08045A   24281.95285161 -.00000129  00000+0  00000+0 0  9994
2 33376   0.0240 261.8386 0002667 287.9000  73.3972  1.00272004 58719
ASTRA 1M                
1 33436U 08057A   24282.54792569  .00000129  00000+0  00000+0 0  9994
2 33436   0.0606  79.4933 0005283  93.5509  61.0741  1.00272817 39556
EUTELSAT HOTBIRD 13C    
1 33459U 08065A   24282.39863424 -.00000090  00000+0  00000+0 0  9998
2 33459   1.3515  86.1450 0005065 122.3340 300.0667  1.00271732 41163
EXPRESS-AM44            
1 33595U 09007A   24282.39898176 -.00000078  00000+0  00000+0 0  9994
2 33595   1.8647  85.8965 0004027 109.0869 315.2085  1.00272044 46105
NSS-9                   
1 33749U 09008A   24282.60215486  .00000081  00000+0  00000+0 0  9990
2 33749   0.0514  57.8868 0002142 124.5848 235.1197  1.00271098 57335
EUTELSAT 33E            
1 33750U 09008B   24282.52516302 -.00000139  00000+0  00000+0 0  9999
2 33750   1.0724  87.4677 0004970 111.8774 271.9718  1.00271249 57263
TELSTAR 11N             
1 34111U 09009A   24281.32107052 -.00000239  00000+0  00000+0 0  9998
2 34111   0.0188 221.1661 0002234 314.8614 278.4910  1.00270152 40043
WGS F2 (USA 204)        
1 34713U 09017A   24282.41244822  .00000077  00000+0  00000+0 0  9992
2 34713   0.0108 188.7809 0001307 116.6915 278.0292  1.00272060 39437
SES-7 (PROTOSTAR 2)     
1 34941U 09027A   24282.53884843 -.00000336  00000+0  00000+0 0  9991
2 34941   0.0935  77.6443 0001562 171.8372  70.4555  1.00271678 56429
MEASAT-3A               
1 35362U 09032A   24282.57910796 -.00000101  00000+0  00000+0 0  9996
2 35362   0.0171 209.2104 0001955  24.4126 152.5262  1.00271605  1845
GOES 14                 
1 35491U 09033A   24282.35881549 -.00000056  00000+0  00000+0 0  9998
2 35491   0.0778  93.5911 0003829  82.4868 222.0811  1.00270718   408
FM-5                    
1 35493U 09034A   24282.52707439 -.00000191  00000+0  00000+0 0  9995
2 35493   0.0275 263.5975 0000737 226.6983 350.9800  1.00270733 40462
TERRESTAR-1             
1 35496U 09035A   24281.52098229 -.00000044  00000+0  00000+0 0  9995
2 35496   4.6449  47.9623 0002978 159.7136 245.5575  1.00272713 55944
ASIASAT 5               
1 35696U 09042A   24282.42113625 -.00000298  00000+0  00000+0 0  9994
2 35696   0.0146 139.1368 0001736  61.4190  69.1292  1.00271623 55529
JCSAT-12 (JCSAT-RA)     
1 35755U 09044A   24282.57034082 -.00000318  00000+0  00000+0 0  9990
2 35755   0.0892  89.9589 0001227  48.9835 216.1534  1.00271131 55427
OPTUS D3                
1 35756U 09044B   24282.57521094 -.00000138  00000+0  00000+0 0  9995
2 35756   0.2954  83.9201 0002336 114.7888 182.0719  1.00271104 55376
NIMIQ 5                 
1 35873U 09050A   24281.88612748 -.00000246  00000+0  00000+0 0  9992
2 35873   0.0509  86.4866 0002884 111.7242  65.1431  1.00271428 55151
AMAZONAS 2              
1 35942U 09054A   24282.53202657 -.00000273  00000+0  00000+0 0  9990
2 35942   0.2098  94.6646 0005139 106.9584 306.7700  1.00269376 55007
COMSATBW-1              
1 35943U 09054B   24282.55670060  .00000033  00000+0  00000+0 0  9993
2 35943   0.0438  73.5861 0003482 140.4783  67.0551  1.00270962 55118
NSS-12                  
1 36032U 09058A   24282.55548428  .00000080  00000+0  00000+0 0  9991
2 36032   0.0903  79.6211 0003479 116.6365  78.4223  1.00273095 54737
THOR 6                  
1 36033U 09058B   24282.32947744  .00000000  00000+0  00000+0 0  9993
2 36033   0.0140 171.2285 0001773   9.0475 314.9842  1.00271752 54826
INTELSAT 14 (IS-14)     
1 36097U 09064A   24281.89168782 -.00000263  00000+0  00000+0 0  9990
2 36097   0.0195  99.8012 0002378  94.1603  99.1052  1.00271794 54415
EUTELSAT 36B            
1 36101U 09065A   24282.19377029  .00000165  00000+0  00000+0 0  9997
2 36101   0.0976 314.5745 0004985 246.3912 282.0045  1.00274464 54522
INTELSAT 15 (IS-15)     
1 36106U 09067A   24282.56104463 -.00000177  00000+0  00000+0 0  9999
2 36106   0.0131 208.4035 0002251 353.6101 102.8323  1.00271865 35045
WGS F3 (USA 211)        
1 36108U 09068A   24282.61349887  .00000061  00000+0  00000+0 0  9990
2 36108   0.1640  87.9879 0003124 168.7240 176.2829  0.99726091 40414
DIRECTV 12              
1 36131U 09075A   24282.38073686 -.00000094  00000+0  00000+0 0  9996
2 36131   0.0068 153.9322 0000198 279.3219 338.6320  1.00271825 40360
BEIDOU-2 G1             
1 36287U 10001A   24282.57207843 -.00000269  00000+0  00000+0 0  9998
2 36287   2.8622  59.3033 0002898 273.4502  31.3809  1.00273061 53980
RADUGA-1M 2             
1 36358U 10002A   24282.56104463 -.00000174  00000+0  00000+0 0  9996
2 36358   2.0080  86.8822 0002990 133.8444  83.9643  1.00272284 43903
SDO                     
1 36395U 10005A   24281.01785403 -.00000046  00000+0  00000+0 0  9996
2 36395  33.3525  95.8436 0001518 166.2673  18.8300  1.00274600 53862
INTELSAT 16 (IS-16)     
1 36397U 10006A   24282.52898576 -.00000235  00000+0  00000+0 0  9992
2 36397   0.0103 199.8333 0002164   3.5170 288.5568  1.00270839 53470
EWS-G2 (GOES 15)        
1 36411U 10008A   24282.05580426  .00000048  00000+0  00000+0 0  9992
2 36411   0.3117 274.3833 0006250 310.4165 233.7721  1.00272588 53457
ECHOSTAR 14             
1 36499U 10010A   24282.19146626  .00000010  00000+0  00000+0 0  9995
2 36499   0.0162 224.7623 0002107 330.6620 131.9535  1.00272501 40366
SES-1                   
1 36516U 10016A   24281.52315390 -.00000104  00000+0  00000+0 0  9998
2 36516   0.0332 291.2696 0002469 261.4949 271.2642  1.00272962 52844
ASTRA 3B                
1 36581U 10021A   24282.54862073  .00000147  00000+0  00000+0 0  9990
2 36581   0.0227 282.9115 0003660 264.5308  51.2691  1.00274640 52697
COMSATBW-2              
1 36582U 10021B   24282.31924277  .00000099  00000+0  00000+0 0  9997
2 36582   0.0593  94.4971 0002894 123.0669 288.0416  1.00274696 52772
BEIDOU-2 G3             
1 36590U 10024A   24282.56000206 -.00000125  00000+0  00000+0 0  9994
2 36590   3.0613  61.7335 0004514 347.2029 249.9916  1.00271053 52583
BADR-5                  
1 36592U 10025A   24281.35327185  .00000156  00000+0  00000+0 0  9994
2 36592   0.0310 142.5947 0005361  38.8855 348.2082  1.00269997 47028
COMS 1                  
1 36744U 10032A   24282.56964578 -.00000334  00000+0  00000+0 0  9997
2 36744   3.2382  83.1839 0000816 101.3544 166.3943  1.00271094 44902
ARABSAT-5A              
1 36745U 10032B   24282.10813098  .00000164  00000+0  00000+0 0  9998
2 36745   0.0756  53.1810 0003843 127.6951 265.7897  1.00273557 52463
ECHOSTAR 15             
1 36792U 10034A   24282.38890362 -.00000272  00000+0  00000+0 0  9992
2 36792   0.0468  82.5923 0002482  76.8291 296.4837  1.00272451 52137
BEIDOU-2 IGSO-1         
1 36828U 10036A   24282.44467323 -.00000097  00000+0  00000+0 0  9993
2 36828  54.2540 168.5455 0040774 203.5186 269.9519  1.00249710 52024
NILESAT 201             
1 36830U 10037A   24281.32715215 -.00000046  00000+0  00000+0 0  9993
2 36830   0.0325 131.3230 0005557  61.0911 294.8496  1.00272188 52171
RASCOM-QAF 1R           
1 36831U 10037B   24282.54462424  .00000029  00000+0  00000+0 0  9990
2 36831   0.0412 109.2751 0006106 101.9351   5.4523  1.00273941 52113
AEHF-1 (USA 214)        
1 36868U 10039A   24282.54922890  .00000159  00000+0  00000+0 0  9994
2 36868   6.6639  75.8575 0003144  94.2605  70.6347  1.00423334 47477
XM-5                    
1 37185U 10053A   24282.02072160 -.00000013  00000+0  00000+0 0  9992
2 37185   0.0362  84.6188 0000502  13.0304 171.8007  1.00269635 51293
BSAT-3B                 
1 37207U 10056B   24282.47663880 -.00000341  00000+0  00000+0 0  9998
2 37207   0.0494  21.9776 0003003 246.8887  30.1971  1.00270386 45927
BEIDOU-2 G4             
1 37210U 10057A   24282.57932771 -.00000101  00000+0  00000+0 0  9996
2 37210   2.1153  69.7812 0008068 165.4725 151.1084  1.00271127 51100
SKYTERRA 1              
1 37218U 10061A   24282.44989424 -.00000107  00000+0  00000+0 0  9998
2 37218   3.8358  49.2140 0004307 187.3670 201.6691  1.00271540 51018
HYLAS 1                 
1 37237U 10065A   24282.46489196 -.00000112  00000+0  00000+0 0  9992
2 37237   4.0617  80.5004 0002082 135.3345 127.8548  1.00272268   705
INTELSAT 17 (IS-17)     
1 37238U 10065B   24282.55730878  .00000007  00000+0  00000+0 0  9991
2 37238   0.0252 239.2956 0003077 337.0203  68.0028  1.00273471 47050
BEIDOU-2 IGSO-2         
1 37256U 10068A   24281.92218284 -.00000174  00000+0  00000+0 0  9992
2 37256  48.6756 279.4430 0039932 218.5771 318.7885  1.00267084 50606
EUTELSAT KA-SAT 9A      
1 37258U 10069A   24282.54584057  .00000070  00000+0  00000+0 0  9992
2 37258   0.0859 287.2302 0000937 272.8180  23.0540  1.00269483 37827
HISPASAT 30W-5          
1 37264U 10070A   24282.39515903 -.00000206  00000+0  00000+0 0  9990
2 37264   0.0440 108.3102 0005283  69.3893 312.0999  1.00272322 47006
